[{"OBJECT_NAME":"STARLINK-31551","OBJECT_ID":"2024-045P","EPOCH":"2026-03-09T09:59:39.701472","MEAN_MOTION":15.27581342,"ECCENTRICITY":8.034e-5,"INCLINATION":42.9996,"RA_OF_ASC_NODE":90.3041,"ARG_OF_PERICENTER":253.7201,"MEAN_ANOMALY":106.3562,"EPHEMERIS_TYPE":0,"CLASSIFICATION_TYPE":"U","NORAD_CAT_ID":59191,"ELEMENT_SET_NO":999,"REV_AT_EPOCH":11316,"BSTAR":-3.9253497e-5,"MEAN_MOTION_DOT":-1.342e-5,"MEAN_MOTION_DDOT":0},{"OBJECT_NAME":"AIST-2 (RS43)","OBJECT_ID":"2013-015D","EPOCH":"2026-03-09T22:52:25.813056","MEAN_MOTION":15.25079544,"ECCENTRICITY":0.00239979,"INCLINATION":64.8687,"RA_OF_ASC_NODE":221.5348,"ARG_OF_PERICENTER":248.8384,"MEAN_ANOMALY":111.0181,"EPHEMERIS_TYPE":0,"CLASSIFICATION_TYPE":"U","NORAD_CAT_ID":39133,"ELEMENT_SET_NO":999,"REV_AT_EPOCH":70876,"BSTAR":0.00037899099,"MEAN_MOTION_DOT":9.402e-5,"MEAN_MOTION_DDOT":0}]
